{"fetched_at":"2026-03-29T16:36:15Z","count":15609,"tles":[{"name":"ICEYE-X63","line1":"1 67372U 26004K   26087.93680818  .00003707  00000+0  40837-3 0  9994","line2":"2 67372  97.8001  87.8443 0005341  49.5494 310.6188 14.88126180 11361","category":"Other"}]}