{
  "norad_id": 67372,
  "name": "ICEYE-X63",
  "history": [
    {
      "epoch": "2026-03-28T22:29:00.226752Z",
      "apogee_km": 607.5195759110647,
      "perigee_km": 600.0614809252083,
      "latitude_deg": 3.910154897019655e-05,
      "longitude_deg": -75.75674634441273,
      "height_km": 604.3989831549949,
      "semi_major_axis_km": 6981.927528418136,
      "eccentricity": 0.0005341,
      "inclination_deg": 97.8001,
      "raan_deg": 87.8443,
      "arg_perigee_deg": 49.5494,
      "mean_anomaly_deg": 310.6188,
      "mean_motion_rev_day": 14.8812618
    }
  ]
}